{"type":"FeatureCollection","features":[{"type":"Feature","properties":{},"geometry":{"type":"Polygon","coordinates":[[[-73.972248,40.727041],[-73.990649,40.734793],[-73.991449,40.731891],[-74.001849,40.719549],[-73.999278,40.717427],[-73.990249,40.714395],[-73.990192,40.713962],[-73.982649,40.714741],[-73.977277,40.713182],[-73.975734,40.716257],[-73.974763,40.718206],[-73.974648,40.719982],[-73.974477,40.721888],[-73.973163,40.724183],[-73.972077,40.726045],[-73.971848,40.726781],[-73.971813,40.726875],[-73.972047,40.726966],[-73.972248,40.727041]]]},"bbox":[-74.001849,40.713182,-73.971813,40.734793]}]}