{"type":"FeatureCollection","features":[{"type":"Feature","properties":{},"geometry":{"type":"LineString","coordinates":[[-73.972055,40.726799],[-73.972062,40.726607],[-73.972125,40.726411],[-73.972223,40.726198],[-73.972377,40.725869],[-73.972482,40.725693],[-73.972588,40.725507],[-73.972693,40.725316],[-73.972812,40.725114],[-73.972952,40.72488],[-73.973064,40.724689],[-73.973261,40.724412],[-73.973408,40.724157],[-73.973583,40.723859],[-73.973773,40.723583],[-73.973969,40.723259],[-73.974376,40.722594],[-73.974573,40.72214],[-73.9747,40.721491],[-73.974784,40.720726],[-73.974861,40.720125],[-73.974945,40.719317],[-73.975001,40.718939],[-73.975043,40.718631],[-73.975268,40.717562],[-73.975717,40.716498],[-73.97605,40.715851],[-73.976383,40.715165],[-73.976557,40.714808],[-73.976702,40.714529],[-73.977055,40.713846],[-73.977435,40.713211],[-73.982518,40.714722],[-73.990161,40.71405],[-73.990249,40.714428],[-73.992398,40.715041],[-73.994896,40.715786],[-73.998834,40.717209],[-74.001934,40.719425],[-74.000077,40.721562],[-73.997819,40.724271],[-73.994673,40.727889],[-73.991467,40.731784],[-73.990763,40.734794],[-73.984236,40.732058],[-73.975628,40.728432],[-73.972132,40.72696],[-73.972075,40.726884],[-73.972053,40.726802]]}},{"type":"Feature","properties":{},"geometry":{"type":"LineString","coordinates":[[-73.972054,40.726802],[-73.972055,40.726799]]}}]}